GLOBALSTAR M084         
1 38040U 11080A   24314.17163385 -.00000069  00000+0  19533-3 0  9992
2 38040  52.0031 358.2821 0000069  94.2065 300.6175 12.62270164595167
GLOBALSTAR M080         
1 38041U 11080B   24314.14824677 -.00000067  00000+0  20408-3 0  9999
2 38041  52.0085 359.8839 0000267 199.1135 208.8678 12.62268137595148
GLOBALSTAR M082         
1 38042U 11080C   24313.91895514 -.00000062  00000+0  23378-3 0  9996
2 38042  52.0084 316.0046 0000860  67.8751 317.9207 12.62269313595683
GLOBALSTAR M092         
1 38043U 11080D   24313.84223551 -.00000076  00000+0  15677-3 0  9993
2 38043  52.0104  46.5996 0000531 103.6865  53.4523 12.62269187594126
GLOBALSTAR M090         
1 38044U 11080E   24313.73953832 -.00000061  00000+0  23880-3 0  9993
2 38044  51.9892 310.6421 0000621  73.2003  97.3129 12.62270399595771
GLOBALSTAR M086         
1 38045U 11080F   24314.13329788 -.00000055  00000+0  27111-3 0  9990
2 38045  51.9906 309.9762 0000764 168.8448 232.4049 12.62269862595876
GLOBALSTAR M097         
1 39072U 13005A   24314.15101278 -.00000079  00000+0  14044-3 0  9991
2 39072  52.0043 224.2472 0000889  83.8876 276.2092 12.62266978543105
GLOBALSTAR M093         
1 39073U 13005B   24313.88671141 -.00000070  00000+0  18985-3 0  9991
2 39073  51.9808 218.7051 0001045  83.6727 276.4259 12.62267306542946
